#dP2020  9  8  0  0  0.00000000      97 __u+U IGS14 FIT  IAC
## 2122 172800.00000000   900.00000000 59100 0.0000000000000
+  119   C01C03C04C05C06C07C08C09C10C11C12C13C14C16C19C20C21
+        C22C23C24C25C26C27C28C29C30C32C33C34C35C36C37C38C39
+        C40C43C44C45C46E01E02E03E04E05E07E08E09E11E12E13E14
+        E15E18E19E21E24E25E26E27E30E31E33E36G01G02G03G04G05
+        G06G07G08G09G10G11G12G13G15G16G17G18G19G20G21G22G24
+        G25G26G27G28G29G30G31G32J01J02J03J07R01R02R03R04R05
+        R07R08R11R12R13R14R15R16R17R18R19R20R21R22R23R24R26
++        13 13 13 13  8  8  8  8  8  7  7  7  7  8  7  7  7
++         7  8  8  8  7  7  7  7  7  7  8  8  7  8  8 11  9
++         9  9 11  9  9  4  4  4  4  4  4  4  4  4  4  4  4
++         4  4  4  4  4  4  4  4  4  4  4  5  3  3  3  3  3
++         3  3  3  3  3  3  3  4  3  3  3  3  3  3  3  3  3
++         3  3  3  3  3  3  3  3 10  9 10 14  6  5  5  5  5
++         5  5  5  5  6  5  5  6  5  5  6  6  5  6  5  5  8
%c M  cc GPS ccc cccc cccc cccc cccc ccccc ccccc ccccc ccccc
%c cc cc ccc ccc cccc cccc cccc cccc ccccc ccccc ccccc ccccc
%f  1.2500000  1.025000000  0.00000000000  0.000000000000000
%f  0.0000000  0.000000000  0.00000000000  0.000000000000000
%i    0    0    0    0      0      0      0      0         0
%i    0    0    0    0      0      0      0      0         0
/* INFORMATION & ANALYSIS CENTER (IAC)            FINAL DATA
/* S/V CLOCKS ARE ALIGNED TO GNSS TIME                      
/* G:C1WC2W R:C1PC2P E:C1XC5X C:C2IC6I J:C1CC2S             
/* PCV:IGS14_2118 OL/AL:FES2004  NONE     YN ORB:CoN CLK:CoN
*  2020 09 08 21 30  0.00000000
PC01 -34311.223370  24532.987303    233.853084   -156.232773
PC03 -14738.694332  39469.193356   -125.581263    797.332529
PC04 -39574.206710  14520.213850    566.566706 999999.999999
PC05  21829.252366  36053.319699  -1051.615186   -209.737498
PC06  -7432.070685  26732.334279 -31196.732004    240.319333
PC07 -22497.898043  25669.683191  24657.358575      4.504596
PC08 -17356.563276  38248.442790   5569.014437   -509.710393
PC09   5126.415863  34657.089109 -22907.062535    797.517681
PC10  -7505.085264  27476.516155  31191.819315   -191.414360
PC11 -15893.637458 -21716.571911   7322.392874   -608.314610
PC12  -4889.080096 -25326.505279 -10571.394206    501.938742
PC13  -8178.647428  40670.205481  -8273.380968    637.507915
PC14 -19611.259653 -11964.532510  15823.509802    247.069209
PC16  -3201.314629  29201.639634 -30071.418655   -588.985753
PC19  25907.559893   6683.592040  -7943.966614    539.240533
PC20  11544.392051  14843.929954 -20618.560744   -841.122537
PC21  10394.311898 -14459.899524  21502.422413   -675.177250
PC22  25620.700855  -5491.141323   9644.318574   -765.079222
PC23 -20367.927948  13743.789723 -13211.130718   -859.381650
PC24  -1697.725936 -21037.328667 -18241.637558   -730.457895
PC25 -16097.031240  -4285.235089 -22389.299741   -750.095988
PC26  12009.316311 -24823.545160  -4171.586555    823.024112
PC27  -3035.030519  21424.528221  17597.396262    395.658187
PC28 -15293.770598   4677.429770  22868.725753   -172.640531
PC29  19116.787101  14032.555222 -14721.273030    281.190801
PC30  11660.324717  25228.897928   2417.361955    372.960935
PC32 -10272.094189  14540.583212 -21477.851201   -898.730542
PC33 -25875.272538  -6632.306008   8042.980026   -796.074032
PC34 -11928.297520 -25167.656524  -1892.887310   -859.165517
PC35  15283.554154  -5006.348400 -22807.124545   -663.334378
PC36  15858.160686   4940.388324  22458.983308   -930.683101
PC37 -13033.959427  24433.147385   3527.378122   -929.949202
PC38 -15487.392854  39217.353762   2577.194040     99.334858
PC39  -1341.751240  29319.637277 -30235.736335     22.089641
PC40 -13734.668955  22422.262852  32930.614402     79.227970
PC43 -19060.166356 -14445.980335  14387.003268 999999.999999
PC44   2569.166888 -21467.379062 -17663.888544   -229.891295
PC45  20275.174549 -13837.795763  13275.149182    225.764088
PC46   2203.958969  20640.216611  18682.711515    648.152656
PE01 -17471.535595  -7238.633620 -22760.495592   -936.729181
PE02  17555.015171   7167.746319  22735.183418    160.238533
PE03  24739.030940  15987.419593  -3021.942952   -340.723854
PE04 -25626.155814  -2210.467303 -14641.928310   -603.167133
PE05   9314.217320  20563.788175 -19147.698067   -347.742672
PE07  11429.388204 -13094.586518  23965.536142   -433.550598
PE08  25513.478681   1932.748028  14897.486846   6123.406062
PE09 -11133.730117  13125.867183 -24077.342381   5937.180497
PE11  -9251.705894  23629.639433  15222.919816   5369.576544
PE12 -16070.229269   3538.956427  24600.738172   5615.163122
PE13   9259.167572 -23471.112590 -15473.400621    403.546444
PE14 -16714.360473 -20761.792298  -2778.699009  -1149.017886
PE15  15958.883212  -3816.652448 -24633.102086    853.250713
PE18  25168.389143  12783.410951 -11902.431371  -1255.882140
PE19 -23665.965952 -17025.032817   5124.334308     73.646124
PE21   1452.442701 -18779.012594 -22828.590276   -620.356914
PE24 -20345.553572  19444.279512   9194.308746   5254.276498
PE25  -1590.843366  18834.325691  22791.944109   -516.323462
PE26  -3062.598140 -29250.297554   3287.578850   2748.662488
PE27  19971.713864 -19639.076172  -9560.885461    138.223450
PE30  26667.824291  -8419.435682   9694.390736   3600.138283
PE31 -26648.615892   8980.681768  -9215.155058   -474.013031
PE33 -13280.443901 -18069.999963  19319.619950   -462.913389
PE36   2876.892714  29332.141685  -2773.703347    510.014416
PG01 -13844.107105  17175.073572  14309.119126     36.076591
PG02  14312.682328   4726.695512 -21233.689294   -513.769207
PG03 -21605.388136  12849.704806  -8495.662420   -293.619755
PG04 -11747.514899   9754.208664 -21725.037671   -133.785194
PG05  24383.116065   -273.369247 -10909.945146    -20.661899
PG06   7409.033012  18945.514648 -17004.780674   -323.891303
PG07  -5226.579266  25751.119258   1175.679964   -368.302493
PG08 -19206.071753   -172.324705  18469.540628    -47.291588
PG09    -31.839812  18328.739933 -19271.986212   -283.111353
PG10  -6423.329111 -13804.321079  21862.188895   -449.549388
PG11 -14015.970472   8685.772218  20389.769061   -169.751602
PG12  23103.776297 -10670.948463  -7559.214529     69.780504
PG13  20493.286058   9688.902642  13805.384644     43.451446
PG15  19211.816849  -2510.579376  17988.859783   -205.005436
PG16 -25350.214205   -656.485461  -8848.524557   -206.531916
PG17  13876.743683  21551.747261   7469.650316    323.098087
PG18   5302.912511 -25947.254898   1667.477236    286.523565
PG19  17954.957506  19613.688830   -780.968950   -107.480928
PG20   5900.884926 -17889.093052  18552.510066    526.797683
PG21 -14155.402715  -8597.438330  21583.808836     44.973234
PG22 -24481.312167  10086.638891     15.705054   -756.409220
PG24  14469.379205 -14787.699445  16235.418431    -18.318787
PG25  13840.017463 -16011.418637 -16122.852579     46.389459
PG26 -17361.687663  -8084.509653 -18528.927686    275.515049
PG27 -22051.298837 -10718.126973  10483.297729   -391.005853
PG28   6701.150750  13915.834055  22176.635809    680.872249
PG29   4133.501828 -15851.349081 -20938.025179   -190.586454
PG30   1776.529180  24194.382629  10603.730016   -298.089490
PG31  -8868.562581 -17079.612537 -18150.417118    -67.468658
PG32 -15822.055731 -20485.035552   6395.711750    343.796871
PJ01 -30085.854360  16581.656014 -19893.544248   -348.734773
PJ02 -29809.614589  29844.052543   5093.467522     -3.420928
PJ03 -25474.688239  23371.828998  29205.865727     -0.977331
PJ07 -25340.014437  33708.329278    -60.161445     -0.057000
PR01 -21809.585354  -9392.031602   9295.613843     67.292068
PR02 -22624.924021    180.484449 -11800.048598    444.732700
PR03  -8736.323122   8796.662884 -22262.093467     21.667889
PR04  10040.173261  12098.446614 -20062.357115     53.886057
PR05  23041.516333   8750.215426  -6521.313222     57.234509
PR07   8019.461246  -9065.790940  22480.020581    -39.962430
PR08  -9991.967944 -12238.046784  20081.660354    -54.457660
PR11   1046.130099 -15499.968815 -20225.955295    -36.960680
PR12 -12179.400342  -2490.475748 -22241.821682    162.204264
PR13 -19008.255944  12378.723106 -11668.410108    -43.578330
PR14 -14714.260667  19900.778863   6153.294114     55.340092
PR15  -1919.510056  15831.007354  19934.966604    106.976655
PR16  12723.546269   1839.359283  21996.748386     -6.147015
PR17  -2544.017325  18884.623287  16988.437432    356.506794
PR18   6291.061695  24639.679717   1687.839684     48.687512
PR19  11231.099254  18035.450170 -14130.075818   -110.357568
PR20  10312.916999  -1488.927200 -23278.497340   -421.295679
PR21   2016.452878 -19501.244426 -16301.178947   -150.820630
PR22  -6744.600567 -24644.086665   -459.265804    -71.986890
PR23 -12192.133345 -11543.036821  19188.749516    330.702677
PR24 -10561.738827   2484.817634  23097.587989     12.598934
PR26  11568.924587   4101.932565 -22357.909672   -362.833004
EOF
